GUOWANG GROUP 20 OBJECT*
1 68133U 26047E   26076.06403444 -.00000145  00000+0  46301-5 0  9995
2 68133  50.0041  40.3867 0006830 274.9069  85.1056 14.05931996   603
GUOWANG GROUP 20 OBJECT*
1 68134U 26047F   26078.97756282 -.00000149  00000+0  20813-5 0  9993
2 68134  50.0091  28.4795 0006391 289.3722  70.6492 14.06079851  1006
GUOWANG GROUP 20 OBJECT*
1 68135U 26047G   26081.25434150  .00000031  00000+0  11510-3 0  9997
2 68135  50.0100  19.1976 0001546 289.1589  70.9148 14.03854153  1332
GUOWANG GROUP 20 OBJECT*
1 68136U 26047H   26079.83055731 -.00000145  00000+0  43052-5 0  9998
2 68136  50.0016  24.9935 0009546 285.3143  74.6707 14.05754608  1125
GUOWANG GROUP 20 OBJECT*
1 68137U 26047J   26077.98170420 -.00000144  00000+0  48405-5 0  9992
2 68137  50.0089  32.5436 0005912 296.0035  64.0262 14.06269806   871
CZ-8A R/B               
1 68138U 26047K   26081.28224397  .00000100  00000+0  13637-3 0  9992
2 68138  49.9538  18.5986 0044771 181.6178 178.4591 14.12229883  1330
SHIYAN-30 03            
1 68139U 26048A   26081.62264618  .00002700  00000+0  26600-3 0  9994
2 68139  35.0002  66.5405 0003873 309.8018  50.2346 14.91690455  1437
SHIYAN-30 04            
1 68140U 26048B   26081.62340029  .00002603  00000+0  25652-3 0  9995
2 68140  34.9917  66.5463 0002376 309.5489  50.5005 14.91700477  1433
CZ-2D R/B               
1 68141U 26048C   26081.26716016  .00001599  00000+0  14406-3 0  9997
2 68141  35.1297  68.6308 0014916  74.9842 285.2516 14.95539275  1386
STARLINK-36604          
1 68142U 26049A   26078.57838178 -.00601426  12954-3 -10855-2 0  9998
2 68142  97.2797  98.1391 0000555  65.4234 294.7104 16.01563866   968
STARLINK-36995          
1 68143U 26049B   26078.26577997 -.00531426  10413-3 -90105-3 0  9991
2 68143  97.2800  97.7985 0000959  13.3742 346.7563 16.02629136   918
STARLINK-37020          
1 68144U 26049C   26078.51432062  .00978873  50884-3  15014-2 0  9993
2 68144  97.2794  98.0724 0000467 166.1555 193.9739 16.04472428   952
